QIANFAN-41              
1 62242U 24232F   25232.85056946  .00000052  00000+0  61874-4 0  9992
2 62242  88.9933  52.6979 0014786 153.4482 206.7429 13.50960941 83873
QIANFAN-42              
1 62243U 24232G   25232.89789049  .00000151  00000+0  58917-4 0  9998
2 62243  88.9933  50.3658 0017334  96.1511 264.1657 14.24338723 85165
QIANFAN-43              
1 62244U 24232H   25232.84646582  .00000056  00000+0  67949-4 0  9997
2 62244  88.9938  52.7587 0016126 159.1392 201.0421 13.50964819 52480
QIANFAN-44              
1 62245U 24232J   25232.90817406  .00000059  00000+0  73031-4 0  9992
2 62245  88.9936  52.5648 0014466 155.3592 204.8253 13.50963658 83961
QIANFAN-45              
1 62246U 24232K   25232.80121732  .00000058  00000+0  71851-4 0  9999
2 62246  88.9939  52.7183 0015105 155.5972 204.5897 13.50959445 83876
QIANFAN-46              
1 62247U 24232L   25232.89994469  .00000063  00000+0  79076-4 0  9997
2 62247  88.9935  52.7819 0015017 160.6319 199.5406 13.50961430 83846
QIANFAN-47              
1 62248U 24232M   25232.90398994  .00000063  00000+0  78703-4 0  9997
2 62248  88.9931  52.7190 0015466 159.9775 200.1986 13.50961209 83879
QIANFAN-48              
1 62249U 24232N   25232.86702376  .00000077  00000+0  10018-3 0  9995
2 62249  88.9936  52.7201 0017614 163.4941 196.6787 13.50964356 83874
